HULIANWANG DIGUI-113    
1 66923U 25285J   26064.73760394 -.00000209  00000+0 -18409-3 0  9992
2 66923  50.0098 156.6886 0000083 312.0072  48.0793 13.29330704 12305
HULIANWANG DIGUI-114    
1 66953U 25287A   26064.71655679  .00000095  00000+0  18733-3 0  9995
2 66953  86.4973 317.3521 0001970  80.5130 279.6227 13.24415740 11642
HULIANWANG DIGUI-115    
1 66954U 25287B   26064.78453256  .00000086  00000+0  16643-3 0  9998
2 66954  86.4989 317.3383 0002052  79.7002 280.4363 13.24415852 11652
HULIANWANG DIGUI-116    
1 66955U 25287C   26064.77698567  .00000085  00000+0  16440-3 0  9998
2 66955  86.4929 317.2771 0002058  79.5347 280.6019 13.24415980 11655
HULIANWANG DIGUI-117    
1 66956U 25287D   26064.69392318  .00000067  00000+0  12192-3 0  9995
2 66956  86.4990 317.3571 0001236  21.0253 339.0932 13.24414059 11646
HULIANWANG DIGUI-118    
1 66957U 25287E   26064.76189985  .00000067  00000+0  12101-3 0  9998
2 66957  86.4966 317.3054 0002040  79.4480 280.6883 13.24415417 11655
HULIANWANG DIGUI-119    
1 67059U 25295A   26064.07196424 -.00000065  00000+0  10542-3 0  9997
2 67059  50.0045  40.1576 0000525 321.2380  38.8462 13.48505390 11637
HULIANWANG DIGUI-120    
1 67060U 25295B   26063.83643348 -.00000061  00000+0  10986-3 0  9992
2 67060  50.0039  40.9067 0000703 254.9708 105.1095 13.49557850 11605
HULIANWANG DIGUI-121    
1 67061U 25295C   26064.06563528 -.00000064  00000+0  10634-3 0  9993
2 67061  50.0011  40.0927 0000568 248.8697 111.2123 13.48677702 11631
HULIANWANG DIGUI-122    
1 67062U 25295D   26063.97760955 -.00000064  00000+0  10628-3 0  9999
2 67062  50.0051  40.3237 0000583 280.5569  79.5246 13.49131474 11624
HULIANWANG DIGUI-123    
1 67063U 25295E   26064.04460001 -.00000046  00000+0  13558-3 0  9993
2 67063  50.0044  40.0181 0000827 302.5802  57.4999 13.49170834 11632
HULIANWANG DIGUI-124    
1 67064U 25295F   26064.33469219 -.00000063  00000+0  10852-3 0  9999
2 67064  49.9659  38.8537 0003803 208.1973 151.8702 13.48752611 11672
HULIANWANG DIGUI-125    
1 67065U 25295G   26064.69852103 -.00000065  00000+0  10509-3 0  9998
2 67065  49.9968  37.4377 0002417  83.0342 277.0814 13.48906062 11725
HULIANWANG DIGUI-126    
1 67066U 25295H   26064.69129880 -.00000087  00000+0  69783-4 0  9991
2 67066  49.9978  37.4022 0002733  88.0846 272.0347 13.48895905 11728
HULIANWANG DIGUI-127    
1 67067U 25295J   26064.68092374 -.00000316  00000+0 -29580-3 0  9994
2 67067  50.0007  37.3603 0001661  74.0158 286.0906 13.48741481 11724
HULIANWANG DIGUI-128    
1 67236U 25311A   26064.14414762 -.00000044  00000+0  16271-3 0  9991
2 67236  50.0066 128.7172 0000955   8.7924 351.2967 13.34168672  9508
