[{"OBJECT_NAME":"HULIANWANG DIGUI-113","OBJECT_ID":"2025-285J","EPOCH":"2026-03-05T17:42:08.980416","MEAN_MOTION":13.29330704,"ECCENTRICITY":8.3e-6,"INCLINATION":50.0098,"RA_OF_ASC_NODE":156.6886,"ARG_OF_PERICENTER":312.0072,"MEAN_ANOMALY":48.0793,"EPHEMERIS_TYPE":0,"CLASSIFICATION_TYPE":"U","NORAD_CAT_ID":66923,"ELEMENT_SET_NO":999,"REV_AT_EPOCH":1230,"BSTAR":-0.00018409,"MEAN_MOTION_DOT":-2.09e-6,"MEAN_MOTION_DDOT":0},{"OBJECT_NAME":"HULIANWANG DIGUI-114","OBJECT_ID":"2025-287A","EPOCH":"2026-03-05T17:11:50.506656","MEAN_MOTION":13.2441574,"ECCENTRICITY":0.000197,"INCLINATION":86.4973,"RA_OF_ASC_NODE":317.3521,"ARG_OF_PERICENTER":80.513,"MEAN_ANOMALY":279.6227,"EPHEMERIS_TYPE":0,"CLASSIFICATION_TYPE":"U","NORAD_CAT_ID":66953,"ELEMENT_SET_NO":999,"REV_AT_EPOCH":1164,"BSTAR":0.00018733,"MEAN_MOTION_DOT":9.5e-7,"MEAN_MOTION_DDOT":0},{"OBJECT_NAME":"HULIANWANG DIGUI-115","OBJECT_ID":"2025-287B","EPOCH":"2026-03-05T18:49:43.613184","MEAN_MOTION":13.24415852,"ECCENTRICITY":0.0002052,"INCLINATION":86.4989,"RA_OF_ASC_NODE":317.3383,"ARG_OF_PERICENTER":79.7002,"MEAN_ANOMALY":280.4363,"EPHEMERIS_TYPE":0,"CLASSIFICATION_TYPE":"U","NORAD_CAT_ID":66954,"ELEMENT_SET_NO":999,"REV_AT_EPOCH":1165,"BSTAR":0.00016643,"MEAN_MOTION_DOT":8.6e-7,"MEAN_MOTION_DDOT":0},{"OBJECT_NAME":"HULIANWANG DIGUI-116","OBJECT_ID":"2025-287C","EPOCH":"2026-03-05T18:38:51.561888","MEAN_MOTION":13.2441598,"ECCENTRICITY":0.0002058,"INCLINATION":86.4929,"RA_OF_ASC_NODE":317.2771,"ARG_OF_PERICENTER":79.5347,"MEAN_ANOMALY":280.6019,"EPHEMERIS_TYPE":0,"CLASSIFICATION_TYPE":"U","NORAD_CAT_ID":66955,"ELEMENT_SET_NO":999,"REV_AT_EPOCH":1165,"BSTAR":0.0001644,"MEAN_MOTION_DOT":8.5e-7,"MEAN_MOTION_DDOT":0},{"OBJECT_NAME":"HULIANWANG DIGUI-117","OBJECT_ID":"2025-287D","EPOCH":"2026-03-05T16:39:14.962752","MEAN_MOTION":13.24414059,"ECCENTRICITY":0.0001236,"INCLINATION":86.499,"RA_OF_ASC_NODE":317.3571,"ARG_OF_PERICENTER":21.0253,"MEAN_ANOMALY":339.0932,"EPHEMERIS_TYPE":0,"CLASSIFICATION_TYPE":"U","NORAD_CAT_ID":66956,"ELEMENT_SET_NO":999,"REV_AT_EPOCH":1164,"BSTAR":0.00012192,"MEAN_MOTION_DOT":6.7e-7,"MEAN_MOTION_DDOT":0},{"OBJECT_NAME":"HULIANWANG DIGUI-118","OBJECT_ID":"2025-287E","EPOCH":"2026-03-05T18:17:08.147040","MEAN_MOTION":13.24415417,"ECCENTRICITY":0.000204,"INCLINATION":86.4966,"RA_OF_ASC_NODE":317.3054,"ARG_OF_PERICENTER":79.448,"MEAN_ANOMALY":280.6883,"EPHEMERIS_TYPE":0,"CLASSIFICATION_TYPE":"U","NORAD_CAT_ID":66957,"ELEMENT_SET_NO":999,"REV_AT_EPOCH":1165,"BSTAR":0.00012101,"MEAN_MOTION_DOT":6.7e-7,"MEAN_MOTION_DDOT":0},{"OBJECT_NAME":"HULIANWANG DIGUI-119","OBJECT_ID":"2025-295A","EPOCH":"2026-03-05T01:43:37.710336","MEAN_MOTION":13.4850539,"ECCENTRICITY":5.25e-5,"INCLINATION":50.0045,"RA_OF_ASC_NODE":40.1576,"ARG_OF_PERICENTER":321.238,"MEAN_ANOMALY":38.8462,"EPHEMERIS_TYPE":0,"CLASSIFICATION_TYPE":"U","NORAD_CAT_ID":67059,"ELEMENT_SET_NO":999,"REV_AT_EPOCH":1163,"BSTAR":0.00010542,"MEAN_MOTION_DOT":-6.5e-7,"MEAN_MOTION_DDOT":0},{"OBJECT_NAME":"HULIANWANG DIGUI-120","OBJECT_ID":"2025-295B","EPOCH":"2026-03-04T20:04:27.852672","MEAN_MOTION":13.4955785,"ECCENTRICITY":7.03e-5,"INCLINATION":50.0039,"RA_OF_ASC_NODE":40.9067,"ARG_OF_PERICENTER":254.9708,"MEAN_ANOMALY":105.1095,"EPHEMERIS_TYPE":0,"CLASSIFICATION_TYPE":"U","NORAD_CAT_ID":67060,"ELEMENT_SET_NO":999,"REV_AT_EPOCH":1160,"BSTAR":0.00010986,"MEAN_MOTION_DOT":-6.1e-7,"MEAN_MOTION_DDOT":0},{"OBJECT_NAME":"HULIANWANG DIGUI-121","OBJECT_ID":"2025-295C","EPOCH":"2026-03-05T01:34:30.888192","MEAN_MOTION":13.48677702,"ECCENTRICITY":5.68e-5,"INCLINATION":50.0011,"RA_OF_ASC_NODE":40.0927,"ARG_OF_PERICENTER":248.8697,"MEAN_ANOMALY":111.2123,"EPHEMERIS_TYPE":0,"CLASSIFICATION_TYPE":"U","NORAD_CAT_ID":67061,"ELEMENT_SET_NO":999,"REV_AT_EPOCH":1163,"BSTAR":0.00010634,"MEAN_MOTION_DOT":-6.4e-7,"MEAN_MOTION_DDOT":0},{"OBJECT_NAME":"HULIANWANG DIGUI-122","OBJECT_ID":"2025-295D","EPOCH":"2026-03-04T23:27:45.465120","MEAN_MOTION":13.49131474,"ECCENTRICITY":5.83e-5,"INCLINATION":50.0051,"RA_OF_ASC_NODE":40.3237,"ARG_OF_PERICENTER":280.5569,"MEAN_ANOMALY":79.5246,"EPHEMERIS_TYPE":0,"CLASSIFICATION_TYPE":"U","NORAD_CAT_ID":67062,"ELEMENT_SET_NO":999,"REV_AT_EPOCH":1162,"BSTAR":0.00010628,"MEAN_MOTION_DOT":-6.4e-7,"MEAN_MOTION_DDOT":0},{"OBJECT_NAME":"HULIANWANG DIGUI-123","OBJECT_ID":"2025-295E","EPOCH":"2026-03-05T01:04:13.440864","MEAN_MOTION":13.49170834,"ECCENTRICITY":8.27e-5,"INCLINATION":50.0044,"RA_OF_ASC_NODE":40.0181,"ARG_OF_PERICENTER":302.5802,"MEAN_ANOMALY":57.4999,"EPHEMERIS_TYPE":0,"CLASSIFICATION_TYPE":"U","NORAD_CAT_ID":67063,"ELEMENT_SET_NO":999,"REV_AT_EPOCH":1163,"BSTAR":0.00013558,"MEAN_MOTION_DOT":-4.6e-7,"MEAN_MOTION_DDOT":0},{"OBJECT_NAME":"HULIANWANG DIGUI-124","OBJECT_ID":"2025-295F","EPOCH":"2026-03-05T08:01:57.405216","MEAN_MOTION":13.48752611,"ECCENTRICITY":0.0003803,"INCLINATION":49.9659,"RA_OF_ASC_NODE":38.8537,"ARG_OF_PERICENTER":208.1973,"MEAN_ANOMALY":151.8702,"EPHEMERIS_TYPE":0,"CLASSIFICATION_TYPE":"U","NORAD_CAT_ID":67064,"ELEMENT_SET_NO":999,"REV_AT_EPOCH":1167,"BSTAR":0.00010852,"MEAN_MOTION_DOT":-6.3e-7,"MEAN_MOTION_DDOT":0},{"OBJECT_NAME":"HULIANWANG DIGUI-125","OBJECT_ID":"2025-295G","EPOCH":"2026-03-05T16:45:52.216992","MEAN_MOTION":13.48906062,"ECCENTRICITY":0.0002417,"INCLINATION":49.9968,"RA_OF_ASC_NODE":37.4377,"ARG_OF_PERICENTER":83.0342,"MEAN_ANOMALY":277.0814,"EPHEMERIS_TYPE":0,"CLASSIFICATION_TYPE":"U","NORAD_CAT_ID":67065,"ELEMENT_SET_NO":999,"REV_AT_EPOCH":1172,"BSTAR":0.00010509,"MEAN_MOTION_DOT":-6.5e-7,"MEAN_MOTION_DDOT":0},{"OBJECT_NAME":"HULIANWANG DIGUI-126","OBJECT_ID":"2025-295H","EPOCH":"2026-03-05T16:35:28.216320","MEAN_MOTION":13.48895905,"ECCENTRICITY":0.0002733,"INCLINATION":49.9978,"RA_OF_ASC_NODE":37.4022,"ARG_OF_PERICENTER":88.0846,"MEAN_ANOMALY":272.0347,"EPHEMERIS_TYPE":0,"CLASSIFICATION_TYPE":"U","NORAD_CAT_ID":67066,"ELEMENT_SET_NO":999,"REV_AT_EPOCH":1172,"BSTAR":6.9783e-5,"MEAN_MOTION_DOT":-8.7e-7,"MEAN_MOTION_DDOT":0},{"OBJECT_NAME":"HULIANWANG DIGUI-127","OBJECT_ID":"2025-295J","EPOCH":"2026-03-05T16:20:31.811136","MEAN_MOTION":13.48741481,"ECCENTRICITY":0.0001661,"INCLINATION":50.0007,"RA_OF_ASC_NODE":37.3603,"ARG_OF_PERICENTER":74.0158,"MEAN_ANOMALY":286.0906,"EPHEMERIS_TYPE":0,"CLASSIFICATION_TYPE":"U","NORAD_CAT_ID":67067,"ELEMENT_SET_NO":999,"REV_AT_EPOCH":1172,"BSTAR":-0.0002958,"MEAN_MOTION_DOT":-3.16e-6,"MEAN_MOTION_DDOT":0},{"OBJECT_NAME":"HULIANWANG DIGUI-128","OBJECT_ID":"2025-311A","EPOCH":"2026-03-05T03:27:34.354368","MEAN_MOTION":13.34168672,"ECCENTRICITY":9.559e-5,"INCLINATION":50.0066,"RA_OF_ASC_NODE":128.7172,"ARG_OF_PERICENTER":8.7924,"MEAN_ANOMALY":351.2967,"EPHEMERIS_TYPE":0,"CLASSIFICATION_TYPE":"U","NORAD_CAT_ID":67236,"ELEMENT_SET_NO":999,"REV_AT_EPOCH":950,"BSTAR":0.0001627108,"MEAN_MOTION_DOT":-4.4e-7,"MEAN_MOTION_DDOT":0}]
